start=new Date('2021-12-05T00:00:00.000Z').valueOf();
sats=[{"APOAPSIS":"548.185","RA_OF_ASC_NODE":"60.7250","COUNTRY_CODE":"US","LAUNCH_DATE":"2020-08-18","GP_ID":"191100652","SITE":"AFETR","SEMIMAJOR_AXIS":"6925.380","FILE":"3232651","MEAN_MOTION":"15.06389627","ELEMENT_SET_NO":"999","MEAN_MOTION_DOT":"-0.00001465","CLASSIFICATION_TYPE":"U","TLE_LINE2":"2 46141  53.0544  60.7250 0001357  85.1950 274.9194 15.06389627 72139","REV_AT_EPOCH":"7213","INCLINATION":"53.0544","REF_FRAME":"TEME","CENTER_NAME":"EARTH","MEAN_MOTION_DDOT":"0.0000000000000","TLE_LINE1":"1 46141U 20057AA  21338.92434261 -.00001465  00000-0 -79468-4 0  9994","ARG_OF_PERICENTER":"85.1950","ECCENTRICITY":"0.00013570","DECAY_DATE":null,"EPHEMERIS_TYPE":"0","EPOCH":"2021-12-04T22:11:03.201504","MEAN_ELEMENT_THEORY":"SGP4","RCS_SIZE":"LARGE","TIME_SYSTEM":"UTC","BSTAR":"-0.00007946800000","PERIAPSIS":"546.306","NORAD_CAT_ID":"46141","OBJECT_NAME":"STARLINK-1596","MEAN_ANOMALY":"274.9194","OBJECT_ID":"2020-057AA","PERIOD":"95.593","OBJECT_TYPE":"PAYLOAD"},{"OBJECT_TYPE":"PAYLOAD","OBJECT_ID":"2020-057AB","PERIOD":"95.592","NORAD_CAT_ID":"46142","OBJECT_NAME":"STARLINK-1597","MEAN_ANOMALY":"274.0065","BSTAR":"0.00001010400000","PERIAPSIS":"546.303","EPHEMERIS_TYPE":"0","DECAY_DATE":null,"EPOCH":"2021-12-04T17:50:58.096608","MEAN_ELEMENT_THEORY":"SGP4","RCS_SIZE":"LARGE","TIME_SYSTEM":"UTC","TLE_LINE1":"1 46142U 20057AB  21338.74372797 -.00000131  00000-0  10104-4 0  9990","MEAN_MOTION_DDOT":"0.0000000000000","ARG_OF_PERICENTER":"86.1074","ECCENTRICITY":"0.00013100","CLASSIFICATION_TYPE":"U","REV_AT_EPOCH":"7154","TLE_LINE2":"2 46142  53.0563 101.5384 0001310  86.1074 274.0065 15.06401014 71547","INCLINATION":"53.0563","CENTER_NAME":"EARTH","REF_FRAME":"TEME","SITE":"AFETR","GP_ID":"191101402","LAUNCH_DATE":"2020-08-18","FILE":"3232651","MEAN_MOTION":"15.06401014","SEMIMAJOR_AXIS":"6925.345","ELEMENT_SET_NO":"999","MEAN_MOTION_DOT":"-0.00000131","APOAPSIS":"548.118","RA_OF_ASC_NODE":"101.5384","COUNTRY_CODE":"US"},{"APOAPSIS":"384.284","COUNTRY_CODE":"US","RA_OF_ASC_NODE":"67.9808","GP_ID":"191102153","LAUNCH_DATE":"2020-08-18","SITE":"AFETR","FILE":"3232651","SEMIMAJOR_AXIS":"6761.023","MEAN_MOTION":"15.61651535","ELEMENT_SET_NO":"999","MEAN_MOTION_DOT":"0.00101277","CLASSIFICATION_TYPE":"U","REV_AT_EPOCH":"7200","TLE_LINE2":"2 46143  53.0560  67.9808 0002064  30.4466 329.6666 15.61651535 72007","INCLINATION":"53.0560","REF_FRAME":"TEME","CENTER_NAME":"EARTH","MEAN_MOTION_DDOT":"0.0000000000000","TLE_LINE1":"1 46143U 20057AC  21338.55139157  .00101277  00000-0  11461-2 0  9998","ARG_OF_PERICENTER":"30.4466","ECCENTRICITY":"0.00020640","DECAY_DATE":null,"EPHEMERIS_TYPE":"0","EPOCH":"2021-12-04T13:14:00.231648","MEAN_ELEMENT_THEORY":"SGP4","TIME_SYSTEM":"UTC","RCS_SIZE":"LARGE","BSTAR":"0.00114610000000","PERIAPSIS":"381.493","NORAD_CAT_ID":"46143","OBJECT_NAME":"STARLINK-1599","MEAN_ANOMALY":"329.6666","PERIOD":"92.210","OBJECT_ID":"2020-057AC","OBJECT_TYPE":"PAYLOAD"},{"APOAPSIS":"548.065","COUNTRY_CODE":"US","RA_OF_ASC_NODE":"82.2870","ELEMENT_SET_NO":"999","MEAN_MOTION_DOT":"-0.00000081","GP_ID":"191102404","SITE":"AFETR","LAUNCH_DATE":"2020-08-18","FILE":"3232651","MEAN_MOTION":"15.06398729","SEMIMAJOR_AXIS":"6925.352","INCLINATION":"53.0553","REF_FRAME":"TEME","CENTER_NAME":"EARTH","CLASSIFICATION_TYPE":"U","REV_AT_EPOCH":"6005","TLE_LINE2":"2 46144  53.0553  82.2870 0001224  81.6099 278.5028 15.06398729 60054","ECCENTRICITY":"0.00012240","MEAN_MOTION_DDOT":"0.0000000000000","TLE_LINE1":"1 46144U 20057AD  21338.57601451 -.00000081  00000-0  13425-4 0  9998","ARG_OF_PERICENTER":"81.6099","MEAN_ELEMENT_THEORY":"SGP4","RCS_SIZE":"LARGE","TIME_SYSTEM":"UTC","DECAY_DATE":null,"EPHEMERIS_TYPE":"0","EPOCH":"2021-12-04T13:49:27.653664","PERIAPSIS":"546.370","BSTAR":"0.00001342500000","MEAN_ANOMALY":"278.5028","NORAD_CAT_ID":"46144","OBJECT_NAME":"STARLINK-1606","OBJECT_ID":"2020-057AD","PERIOD":"95.592","OBJECT_TYPE":"PAYLOAD"},{"NORAD_CAT_ID":"46146","OBJECT_NAME":"STARLINK-1608","MEAN_ANOMALY":"257.9321","OBJECT_TYPE":"PAYLOAD","PERIOD":"95.592","OBJECT_ID":"2020-057AF","EPHEMERIS_TYPE":"0","DECAY_DATE":null,"EPOCH":"2021-12-04T21:17:57.588576","MEAN_ELEMENT_THEORY":"SGP4","TIME_SYSTEM":"UTC","RCS_SIZE":"LARGE","BSTAR":"0.00006172700000","PERIAPSIS":"546.185","CLASSIFICATION_TYPE":"U","REV_AT_EPOCH":"7157","TLE_LINE2":"2 46146  53.0535 100.8894 0001474 102.1833 257.9321 15.06402663 71570","INCLINATION":"53.0535","CENTER_NAME":"EARTH","REF_FRAME":"TEME","TLE_LINE1":"1 46146U 20057AF  21338.88747209  .00000638  00000-0  61727-4 0  9991","MEAN_MOTION_DDOT":"0.0000000000000","ARG_OF_PERICENTER":"102.1833","ECCENTRICITY":"0.00014740","APOAPSIS":"548.226","RA_OF_ASC_NODE":"100.8894","COUNTRY_CODE":"US","GP_ID":"191101152","SITE":"AFETR","LAUNCH_DATE":"2020-08-18","MEAN_MOTION":"15.06402663","FILE":"3232651","SEMIMAJOR_AXIS":"6925.340","ELEMENT_SET_NO":"999","MEAN_MOTION_DOT":"0.00000638"},{"REV_AT_EPOCH":"7220","TLE_LINE2":"2 46147  53.0529 101.5627 0001310  93.7954 266.3185 15.06394687 72203","CLASSIFICATION_TYPE":"U","CENTER_NAME":"EARTH","REF_FRAME":"TEME","INCLINATION":"53.0529","ARG_OF_PERICENTER":"93.7954","TLE_LINE1":"1 46147U 20057AG  21338.73636606  .00001603  00000-0  12650-3 0  9997","MEAN_MOTION_DDOT":"0.0000000000000","ECCENTRICITY":"0.00013100","COUNTRY_CODE":"US","RA_OF_ASC_NODE":"101.5627","APOAPSIS":"548.137","MEAN_MOTION":"15.06394687","FILE":"3232422","SEMIMAJOR_AXIS":"6925.365","SITE":"AFETR","GP_ID":"191076112","LAUNCH_DATE":"2020-08-18","MEAN_MOTION_DOT":"0.00001603","ELEMENT_SET_NO":"999","OBJECT_NAME":"STARLINK-1611","NORAD_CAT_ID":"46147","MEAN_ANOMALY":"266.3185","OBJECT_TYPE":"PAYLOAD","OBJECT_ID":"2020-057AG","PERIOD":"95.592","EPOCH":"2021-12-04T17:40:22.027584","EPHEMERIS_TYPE":"0","DECAY_DATE":null,"RCS_SIZE":"LARGE","TIME_SYSTEM":"UTC","MEAN_ELEMENT_THEORY":"SGP4","BSTAR":"0.00012650000000","PERIAPSIS":"546.323"},{"OBJECT_TYPE":"PAYLOAD","PERIOD":"95.592","OBJECT_ID":"2020-057AH","MEAN_ANOMALY":"280.5366","NORAD_CAT_ID":"46148","OBJECT_NAME":"STARLINK-1616","PERIAPSIS":"546.370","BSTAR":"0.00005334900000","MEAN_ELEMENT_THEORY":"SGP4","RCS_SIZE":"LARGE","TIME_SYSTEM":"UTC","EPHEMERIS_TYPE":"0","DECAY_DATE":null,"EPOCH":"2021-12-04T16:12:45.722880","ECCENTRICITY":"0.00012040","TLE_LINE1":"1 46148U 20057AH  21338.67552920  .00000513  00000-0  53349-4 0  9997","MEAN_MOTION_DDOT":"0.0000000000000","ARG_OF_PERICENTER":"79.5759","INCLINATION":"53.0543","CENTER_NAME":"EARTH","REF_FRAME":"TEME","CLASSIFICATION_TYPE":"U","TLE_LINE2":"2 46148  53.0543  81.8285 0001204  79.5759 280.5366 15.06403096 71817","REV_AT_EPOCH":"7181","ELEMENT_SET_NO":"999","MEAN_MOTION_DOT":"0.00000513","GP_ID":"191101654","SITE":"AFETR","LAUNCH_DATE":"2020-08-18","MEAN_MOTION":"15.06403096","FILE":"3232651","SEMIMAJOR_AXIS":"6925.339","APOAPSIS":"548.038","RA_OF_ASC_NODE":"81.8285","COUNTRY_CODE":"US"},{"MEAN_MOTION":"15.06397933","FILE":"3232651","SEMIMAJOR_AXIS":"6925.355","GP_ID":"191101905","LAUNCH_DATE":"2020-08-18","SITE":"AFETR","MEAN_MOTION_DOT":"0.00000361","ELEMENT_SET_NO":"999","COUNTRY_CODE":"US","RA_OF_ASC_NODE":"82.3721","APOAPSIS":"548.264","ARG_OF_PERICENTER":"60.4064","TLE_LINE1":"1 46149U 20057AJ  21338.55758694  .00000361  00000-0  43133-4 0  9992","MEAN_MOTION_DDOT":"0.0000000000000","ECCENTRICITY":"0.00015080","TLE_LINE2":"2 46149  53.0549  82.3721 0001508  60.4064 299.7075 15.06397933 73071","REV_AT_EPOCH":"7307","CLASSIFICATION_TYPE":"U","CENTER_NAME":"EARTH","REF_FRAME":"TEME","INCLINATION":"53.0549","BSTAR":"0.00004313300000","PERIAPSIS":"546.176","EPOCH":"2021-12-04T13:22:55.511616","EPHEMERIS_TYPE":"0","DECAY_DATE":null,"TIME_SYSTEM":"UTC","RCS_SIZE":"LARGE","MEAN_ELEMENT_THEORY":"SGP4","OBJECT_TYPE":"PAYLOAD","PERIOD":"95.592","OBJECT_ID":"2020-057AJ","OBJECT_NAME":"STARLINK-1620","NORAD_CAT_ID":"46149","MEAN_ANOMALY":"299.7075"},{"ECCENTRICITY":"0.00013060","TLE_LINE1":"1 46150U 20057AK  21338.81744816  .00001227  00000-0  10124-3 0  9999","MEAN_MOTION_DDOT":"0.0000000000000","ARG_OF_PERICENTER":"91.6647","INCLINATION":"53.0537","CENTER_NAME":"EARTH","REF_FRAME":"TEME","CLASSIFICATION_TYPE":"U","TLE_LINE2":"2 46150  53.0537 101.1934 0001306  91.6647 268.4491 15.06399396 72221","REV_AT_EPOCH":"7222","ELEMENT_SET_NO":"999","MEAN_MOTION_DOT":"0.00001227","LAUNCH_DATE":"2020-08-18","GP_ID":"191076793","SITE":"AFETR","MEAN_MOTION":"15.06399396","FILE":"3232429","SEMIMAJOR_AXIS":"6925.350","APOAPSIS":"548.120","COUNTRY_CODE":"US","RA_OF_ASC_NODE":"101.1934","OBJECT_TYPE":"PAYLOAD","OBJECT_ID":"2020-057AK","PERIOD":"95.592","MEAN_ANOMALY":"268.4491","NORAD_CAT_ID":"46150","OBJECT_NAME":"STARLINK-1629","PERIAPSIS":"546.311","BSTAR":"0.00010124000000","MEAN_ELEMENT_THEORY":"SGP4","TIME_SYSTEM":"UTC","RCS_SIZE":"LARGE","EPHEMERIS_TYPE":"0","DECAY_DATE":null,"EPOCH":"2021-12-04T19:37:07.521024"},{"MEAN_ANOMALY":"278.9210","NORAD_CAT_ID":"46151","OBJECT_NAME":"STARLINK-1631","OBJECT_TYPE":"PAYLOAD","OBJECT_ID":"2020-057AL","PERIOD":"95.593","MEAN_ELEMENT_THEORY":"SGP4","RCS_SIZE":"LARGE","TIME_SYSTEM":"UTC","EPHEMERIS_TYPE":"0","DECAY_DATE":null,"EPOCH":"2021-12-04T14:16:00.246720","PERIAPSIS":"546.379","BSTAR":"0.00006858000000","INCLINATION":"53.0547","CENTER_NAME":"EARTH","REF_FRAME":"TEME","CLASSIFICATION_TYPE":"U","REV_AT_EPOCH":"7180","TLE_LINE2":"2 46151  53.0547  82.2059 0001233  81.1918 278.9210 15.06393671 71802","ECCENTRICITY":"0.00012330","TLE_LINE1":"1 46151U 20057AL  21338.59444730  .00000740  00000-0  68580-4 0  9996","MEAN_MOTION_DDOT":"0.0000000000000","ARG_OF_PERICENTER":"81.1918","APOAPSIS":"548.087","RA_OF_ASC_NODE":"82.2059","COUNTRY_CODE":"US","ELEMENT_SET_NO":"999","MEAN_MOTION_DOT":"0.00000740","GP_ID":"191101403","LAUNCH_DATE":"2020-08-18","SITE":"AFETR","FILE":"3232651","SEMIMAJOR_AXIS":"6925.368","MEAN_MOTION":"15.06393671"}];
